OBJECT B                
1 51825U 22019B   25361.88419970  .00047654  00000+0  74529-3 0  9993
2 51825  97.3660  81.9029 0008404  41.2767 318.9120 15.53592400212997
